[{"OBJECT_NAME":"YAOGAN-30 08A","OBJECT_ID":"2020-076A","EPOCH":"2026-03-09T23:16:56.591616","MEAN_MOTION":15.02157833,"ECCENTRICITY":0.00011165,"INCLINATION":34.995,"RA_OF_ASC_NODE":335.7414,"ARG_OF_PERICENTER":272.5686,"MEAN_ANOMALY":87.4894,"EPHEMERIS_TYPE":0,"CLASSIFICATION_TYPE":"U","NORAD_CAT_ID":46807,"ELEMENT_SET_NO":999,"REV_AT_EPOCH":29318,"BSTAR":0.00031078635,"MEAN_MOTION_DOT":4.146e-5,"MEAN_MOTION_DDOT":0},{"OBJECT_NAME":"STARLINK-5717","OBJECT_ID":"2023-020BB","EPOCH":"2026-03-09T02:34:56.232192","MEAN_MOTION":15.02578274,"ECCENTRICITY":0.00015161,"INCLINATION":43.0055,"RA_OF_ASC_NODE":354.6667,"ARG_OF_PERICENTER":275.5402,"MEAN_ANOMALY":84.5267,"EPHEMERIS_TYPE":0,"CLASSIFICATION_TYPE":"U","NORAD_CAT_ID":55618,"ELEMENT_SET_NO":999,"REV_AT_EPOCH":16898,"BSTAR":-0.00062012965,"MEAN_MOTION_DOT":-8.58e-5,"MEAN_MOTION_DDOT":0}]
